ONEWEB-0319             
1 49105U 21075AG  25140.81121329  .00000075  00000+0  15935-3 0  9990
2 49105  87.9058  84.0113 0002436  75.2793 284.8609 13.17647921181933
ONEWEB-0323             
1 49106U 21075AH  25141.48662812  .00000312  00000+0  83255-3 0  9996
2 49106  87.8881  68.5641 0002620  69.7421 290.3989 13.12441987184172
ONEWEB-0329             
1 49107U 21075AJ  25140.81966538  .00000004  00000+0 -21623-4 0  9996
2 49107  87.9059  84.0144 0002310  80.4183 279.7209 13.17649550181919
ONEWEB-0330             
1 49108U 21075AK  25141.12507903  .00000022  00000+0  22798-4 0  9992
2 49108  87.9060  83.9559 0002269  84.8313 275.3078 13.17647362182989
ONEWEB-0292             
1 49186U 21083A   25141.46037389  .00000279  00000+0  72939-3 0  9995
2 49186  87.8992  38.1125 0001970  74.8290 285.3056 13.13471159180799
ONEWEB-0303             
1 49187U 21083B   25140.79581290  .00000064  00000+0  12983-3 0  9991
2 49187  87.9159  53.4391 0002127  75.0153 285.1214 13.18684518178260
ONEWEB-0306             
1 49188U 21083C   25140.78631902  .00000043  00000+0  75222-4 0  9990
2 49188  87.9161  53.4256 0001883  83.7754 276.3593 13.18684053178306
ONEWEB-0307             
1 49189U 21083D   25141.14972018  .00000239  00000+0  61869-3 0  9996
2 49189  87.8995  38.1779 0001917  91.4173 268.7176 13.13472451180756
